[{"OBJECT_NAME":"STARLINK-6067","OBJECT_ID":"2023-078BB","EPOCH":"2026-03-09T23:48:08.788896","MEAN_MOTION":14.983264,"ECCENTRICITY":0.00026539,"INCLINATION":70.0005,"RA_OF_ASC_NODE":323.4976,"ARG_OF_PERICENTER":261.3525,"MEAN_ANOMALY":98.7334,"EPHEMERIS_TYPE":0,"CLASSIFICATION_TYPE":"U","NORAD_CAT_ID":56816,"ELEMENT_SET_NO":999,"REV_AT_EPOCH":15322,"BSTAR":9.7884525e-5,"MEAN_MOTION_DOT":1.075e-5,"MEAN_MOTION_DDOT":0},{"OBJECT_NAME":"UM5-EOSAT","OBJECT_ID":"2024-149CR","EPOCH":"2026-03-09T17:21:09.122400","MEAN_MOTION":15.00894746,"ECCENTRICITY":0.00087192,"INCLINATION":97.6855,"RA_OF_ASC_NODE":148.6787,"ARG_OF_PERICENTER":107.8964,"MEAN_ANOMALY":252.3212,"EPHEMERIS_TYPE":0,"CLASSIFICATION_TYPE":"U","NORAD_CAT_ID":60555,"ELEMENT_SET_NO":999,"REV_AT_EPOCH":8529,"BSTAR":0.00036077282,"MEAN_MOTION_DOT":4.537e-5,"MEAN_MOTION_DDOT":0}]
